0 TITAN 3C TRANSTAGE DEB
1 03488U 65082QJ  13283.55517969  .00000975  00000-0  16029-3 0  4377
2 03488 032.2306 103.6980 0029212 286.4887 113.9602 14.67844235536254
0 TITAN 3C TRANSTAGE DEB
1 03488U 65082QJ  13285.81968843  .00000840  00000-0  13712-3 0  4387
2 03488 032.2309 090.2013 0029089 306.9142 200.3091 14.67848565536588
0 TITAN 3C TRANSTAGE DEB
1 03488U 65082QJ  13288.45173969  .00001348  00000-0  22418-3 0  4395
2 03488 032.2312 074.5133 0028988 330.8329 068.7287 14.67854965536977
0 TITAN 3C TRANSTAGE DEB
1 03488U 65082QJ  13290.49635200  .00001106  00000-0  18281-3 0  4400
2 03488 032.2315 062.3271 0028892 349.4629 072.9670 14.67860229537278
0 TITAN 3C TRANSTAGE DEB
1 03488U 65082QJ  13292.75882091  .00001282  00000-0  21282-3 0  4414
2 03488 032.2317 048.8427 0028831 010.1414 148.3974 14.67864654537607
0 TITAN 3C TRANSTAGE DEB
1 03488U 65082QJ  13295.53698659  .00001313  00000-0  21816-3 0  4427
2 03488 032.2318 032.2846 0028746 035.5004 068.9790 14.67873125538013
